HAWK-11C                
1 62381U 24247E   26068.51221537  .00009223  00000+0  33290-3 0  9992
2 62381  45.0045 114.8762 0005900 329.7040  30.3502 15.28848020 67743
STARLINK-32763          
1 62750U 25014R   26067.60053711  .00037707  00000+0  13710-2 0  9993
2 62750  42.9992 160.2923 0001399 268.2367  91.8325 15.27621488 63096
